[{"OBJECT_NAME":"GREGOIRE","OBJECT_ID":"2023-084Q","EPOCH":"2026-03-09T22:27:34.471296","MEAN_MOTION":15.35838856,"ECCENTRICITY":0.00062831,"INCLINATION":97.6076,"RA_OF_ASC_NODE":209.2239,"ARG_OF_PERICENTER":318.3511,"MEAN_ANOMALY":41.7253,"EPHEMERIS_TYPE":0,"CLASSIFICATION_TYPE":"U","NORAD_CAT_ID":56946,"ELEMENT_SET_NO":999,"REV_AT_EPOCH":15246,"BSTAR":0.00033169769,"MEAN_MOTION_DOT":0.00011493,"MEAN_MOTION_DDOT":0},{"OBJECT_NAME":"CZ-6A DEB","OBJECT_ID":"2024-140AAN","EPOCH":"2026-03-09T15:08:07.195776","MEAN_MOTION":15.20547394,"ECCENTRICITY":0.0064261,"INCLINATION":89.3669,"RA_OF_ASC_NODE":306.3092,"ARG_OF_PERICENTER":93.6352,"MEAN_ANOMALY":267.2246,"EPHEMERIS_TYPE":0,"CLASSIFICATION_TYPE":"U","NORAD_CAT_ID":61480,"ELEMENT_SET_NO":999,"REV_AT_EPOCH":8198,"BSTAR":0.0033609,"MEAN_MOTION_DOT":0.00078405,"MEAN_MOTION_DDOT":0}]
